[{"OBJECT_ID":"2010-070A","OBJECT_NAME":"HISPASAT 1E","NORAD_CAT_ID":"37264","OBJECT_TYPE":"PAYLOAD","PERIOD":"1436.111","INCLINATION":"0.0214","APOGEE":"35808.019","PERIGEE":"35765.752","ECCENTRICITY":"0.0005012","MEAN_MOTION":"1.00270754","TLE_LINE1":"1 37264U 10070A   16239.38824353 -.00000245  00000-0  00000+0 0  9998","TLE_LINE2":"2 37264   0.0214 134.2123 0005012  21.1506 289.4656  1.00270754 20750","LAUNCH_DATE":"2010-12-29","LAUNCH_SITE":"FRENCH GUIANA","OWNER":"SPAIN","ORBIT_TYPE":"Geosynchronous","OPERATIONAL_STATUS":"Operational","satInfo":{"lng":-48.323293976280155,"lat":-1.239929165841134,"elevation":-9.782453897463167,"azimuth":3.323293976280155,"range":42780.15327373058,"height":35789.85566012768,"velocity":3.0738503415538476},"x":-228,"y":-190,"dx":2.043885314577218,"dy":-2.2958851763810606},{"OBJECT_ID":"2010-070B","OBJECT_NAME":"KOREASAT 6","NORAD_CAT_ID":"37265","OBJECT_TYPE":"PAYLOAD","PERIOD":"1436.133","INCLINATION":"0.0112","APOGEE":"35794.380","PERIGEE":"35780.246","ECCENTRICITY":"0.0001676","MEAN_MOTION":"1.00269229","TLE_LINE1":"1 37265U 10070B   16238.90950943 -.00000390 +00000-0 +00000-0 0  9993","TLE_LINE2":"2 37265 000.0112 102.8919 0001676 078.4239 236.6741 01.00269229020857","LAUNCH_DATE":"2010-12-29","LAUNCH_SITE":"FRENCH GUIANA","OWNER":"SOUTH KOREA","ORBIT_TYPE":"Geosynchronous","OPERATIONAL_STATUS":"Operational","satInfo":{"lng":58.31657437771825,"lat":0.08868255990512802,"elevation":-8.482327318604174,"azimuth":256.6834256222818,"range":42655.61157532845,"height":35810.93271188072,"velocity":3.0737016540769218},"x":255,"y":-150,"dx":1.614386514579962,"dy":2.6156066294107694},{"OBJECT_ID":"2011-001A","OBJECT_NAME":"ELEKTRO-L","NORAD_CAT_ID":"37344","OBJECT_TYPE":"PAYLOAD","PERIOD":"1444.098","INCLINATION":"1.8341","APOGEE":"36088.588","PERIGEE":"35797.562","ECCENTRICITY":"0.0034383","MEAN_MOTION":"0.99716182","TLE_LINE1":"1 37344U 11001A   16237.22270159 -.00000182  00000-0  00000+0 0  9992","TLE_LINE2":"2 37344   1.8341  79.1330 0034383  81.5917 243.9683  0.99716182 20522","LAUNCH_DATE":"2011-01-20","LAUNCH_SITE":"TYURATAM MISSILE AND SPACE COMPLEX","OWNER":"COMMONWEALTH OF INDEPENDENT STATES","ORBIT_TYPE":"Geosynchronous","OPERATIONAL_STATUS":"Operational","satInfo":{"lng":-177.00544871421636,"lat":2.01083962345212,"elevation":-6.59800143603899,"azimuth":132.00544871421636,"range":42453.02660763434,"height":35819.672489413824,"velocity":3.0779540104613616},"x":-18,"y":285,"dx":-3.073751086679512,"dy":-0.16079535954653268},{"OBJECT_ID":"2011-016A","OBJECT_NAME":"INTELSAT NEW DAWN","NORAD_CAT_ID":"37392","OBJECT_TYPE":"PAYLOAD","PERIOD":"1436.083","INCLINATION":"0.0553","APOGEE":"35789.195","PERIGEE":"35783.469","ECCENTRICITY":"6.79e-05","MEAN_MOTION":"1.00272728","TLE_LINE1":"1 37392U 11016A   16239.00655895  .00000128  00000-0  00000+0 0  9992","TLE_LINE2":"2 37392   0.0553 266.5382 0000679 281.2325 182.0696  1.00272728 19591","LAUNCH_DATE":"2011-04-22","LAUNCH_SITE":"FRENCH GUIANA","OWNER":"INTERNATIONAL TELECOMMUNICATIONS SATELLITE ORGANIZATION (INTELSAT)","ORBIT_TYPE":"Geosynchronous","OPERATIONAL_STATUS":"Operational","satInfo":{"lng":86.94661798293912,"lat":-1.6569461903001363,"elevation":-10.19362331862582,"azimuth":228.0533820170609,"range":42799.2704884173,"height":35763.162984665534,"velocity":3.0755397804346956},"x":299,"y":-16,"dx":0.16382277377284857,"dy":3.071173560681595},{"OBJECT_ID":"2011-016B","OBJECT_NAME":"YAHSAT 1A","NORAD_CAT_ID":"37393","OBJECT_TYPE":"PAYLOAD","PERIOD":"1436.098","INCLINATION":"0.0161","APOGEE":"35788.510","PERIGEE":"35784.757","ECCENTRICITY":"4.45e-05","MEAN_MOTION":"1.00271654","TLE_LINE1":"1 37393U 11016B   16239.12212697  .00000073  00000-0  00000+0 0  9994","TLE_LINE2":"2 37393   0.0161 160.3284 0000445 359.4888 271.4379  1.00271654 19646","LAUNCH_DATE":"2011-04-22","LAUNCH_SITE":"FRENCH GUIANA","OWNER":"UNITED ARAB EMIRATES","ORBIT_TYPE":"Geosynchronous","OPERATIONAL_STATUS":"Operational","satInfo":{"lng":97.10858289185538,"lat":-0.2731106251951157,"elevation":-8.841435266368451,"azimuth":217.89141710814462,"range":42666.636386312486,"height":35781.99098095369,"velocity":3.074902638342819},"x":297,"y":35,"dx":-0.38051959016807524,"dy":3.0512671264223896},{"OBJECT_ID":"2011-021A","OBJECT_NAME":"TELSTAR 14R","NORAD_CAT_ID":"37602","OBJECT_TYPE":"PAYLOAD","PERIOD":"1436.115","INCLINATION":"0.053","APOGEE":"35791.843","PERIGEE":"35782.078","ECCENTRICITY":"0.0001158","MEAN_MOTION":"1.00270487","TLE_LINE1":"1 37602U 11021A   16239.09239381 -.00000308  00000-0  00000+0 0  9990","TLE_LINE2":"2 37602   0.0530 296.1348 0001158 342.6781  26.1940  1.00270487 19862","LAUNCH_DATE":"2011-05-20","LAUNCH_SITE":"TYURATAM MISSILE AND SPACE COMPLEX","OWNER":"CANADA","ORBIT_TYPE":"Geosynchronous","OPERATIONAL_STATUS":"Operational","satInfo":{"lng":-75.41544648226811,"lat":1.205800331791908,"elevation":-7.392542876250785,"azimuth":30.415446482268116,"range":42517.22956980224,"height":35795.01526949053,"velocity":3.074562640564362},"x":-295,"y":-72,"dx":0.7742008912609086,"dy":-2.9754912889680782},{"OBJECT_ID":"2011-022A","OBJECT_NAME":"GSAT 8","NORAD_CAT_ID":"37605","OBJECT_TYPE":"PAYLOAD","PERIOD":"1436.081","INCLINATION":"0.065","APOGEE":"35806.085","PERIGEE":"35766.510","ECCENTRICITY":"0.0004693","MEAN_MOTION":"1.00272852","TLE_LINE1":"1 37605U 11022A   16239.11505694  .00000057  00000-0  00000+0 0  9990","TLE_LINE2":"2 37605   0.0650 282.6497 0004693 332.6912 175.9037  1.00272852 19324","LAUNCH_DATE":"2011-05-20","LAUNCH_SITE":"FRENCH GUIANA","OWNER":"INDIA","ORBIT_TYPE":"Geosynchronous","OPERATIONAL_STATUS":"Operational","satInfo":{"lng":94.9149385337891,"lat":-1.4062998429759164,"elevation":-9.941993053151513,"azimuth":220.0850614662109,"range":42810.43214056486,"height":35802.10504524215,"velocity":3.0735024251847407},"x":299,"y":24,"dx":-0.2633275266454806,"dy":3.062201131755923},{"OBJECT_ID":"2011-022B","OBJECT_NAME":"ST 2","NORAD_CAT_ID":"37606","OBJECT_TYPE":"PAYLOAD","PERIOD":"1436.093","INCLINATION":"0.0108","APOGEE":"35791.473","PERIGEE":"35781.581","ECCENTRICITY":"0.0001173","MEAN_MOTION":"1.00272034","TLE_LINE1":"1 37606U 11022B   16239.01477856 -.00000239  00000-0  00000+0 0  9991","TLE_LINE2":"2 37606   0.0108 124.9902 0001173  40.6701 262.3570  1.00272034 19330","LAUNCH_DATE":"2011-05-20","LAUNCH_SITE":"FRENCH GUIANA","OWNER":"SINGAPORE/TAIWAN","ORBIT_TYPE":"Geosynchronous","OPERATIONAL_STATUS":"Operational","satInfo":{"lng":62.48160333833875,"lat":-0.545521329519958,"elevation":-9.10650125800291,"azimuth":252.51839666166126,"range":42700.15412248675,"height":35785.727338572935,"velocity":3.0747112195902253},"x":266,"y":-132,"dx":1.4206192570434193,"dy":2.7268461655163856},{"OBJECT_ID":"2011-022C","OBJECT_NAME":"ARIANE 5 R/B","NORAD_CAT_ID":"37607","OBJECT_TYPE":"ROCKET BODY","PERIOD":"483.295","INCLINATION":"1.754","APOGEE":"27820.870","PERIGEE":"223.322","ECCENTRICITY":"0.6764028","MEAN_MOTION":"2.9795461","TLE_LINE1":"1 37607U 11022C   16238.78726675  .00002736  00000-0  27252-3 0  9996","TLE_LINE2":"2 37607   1.7540 148.1961 6764028 271.0874  18.3794  2.97954610 50138","LAUNCH_DATE":"2011-05-20","LAUNCH_SITE":"FRENCH GUIANA","OWNER":"FRANCE","ORBIT_TYPE":"Highly Elliptical Orbit","OPERATIONAL_STATUS":"N/A, derelict rocket body","satInfo":{"lng":166.86249612563864,"lat":0.1772294323375175,"elevation":-11.991838901766018,"azimuth":148.13750387436133,"range":30158.02408741654,"height":23121.895646004887,"velocity":2.685493071431496},"x":42,"y":179,"dx":-2.615206736480662,"dy":0.6103824720392423},{"OBJECT_ID":"2011-026A","OBJECT_NAME":"CHINASAT 10","NORAD_CAT_ID":"37677","OBJECT_TYPE":"PAYLOAD","PERIOD":"1436.103","INCLINATION":"0.0062","APOGEE":"35804.076","PERIGEE":"35769.383","ECCENTRICITY":"0.0004114","MEAN_MOTION":"1.0027131","TLE_LINE1":"1 37677U 11026A   16238.98346394 -.00000380  00000-0  00000+0 0  9997","TLE_LINE2":"2 37677   0.0062 129.8536 0004114 115.9371 193.4530  1.00271310 19056","LAUNCH_DATE":"2011-06-20","LAUNCH_SITE":"Xichang Space Center, China","OWNER":"PEOPLES REPUBLIC OF CHINA","ORBIT_TYPE":"Geosynchronous","OPERATIONAL_STATUS":"Operational","satInfo":{"lng":50.525848841142626,"lat":-1.0163526475979887,"elevation":-9.558837151248705,"azimuth":264.4741511588574,"range":42784.76196642012,"height":35819.21600356704,"velocity":3.0728532338191354},"x":231,"y":-182,"dx":1.953505106620303,"dy":2.3719706564376204},{"OBJECT_ID":"2011-032A","OBJECT_NAME":"TIANLIAN 1-02","NORAD_CAT_ID":"37737","OBJECT_TYPE":"PAYLOAD","PERIOD":"1436.118","INCLINATION":"1.9883","APOGEE":"35809.229","PERIGEE":"35764.795","ECCENTRICITY":"0.0005269","MEAN_MOTION":"1.00270303","TLE_LINE1":"1 37737U 11032A   16238.71354186  .00000002  00000-0  00000+0 0  9990","TLE_LINE2":"2 37737   1.9883  78.8757 0005269 135.0649 194.1131  1.00270303 18791","LAUNCH_DATE":"2011-07-11","LAUNCH_SITE":"Xichang Space Center, China","OWNER":"PEOPLES REPUBLIC OF CHINA","ORBIT_TYPE":"Geosynchronous","OPERATIONAL_STATUS":"Operational","satInfo":{"lng":73.64209959962692,"lat":2.837957074493895,"elevation":-5.7960496770468035,"azimuth":241.3579004003731,"range":42308.45427405304,"height":35765.65737669946,"velocity":3.074931383073274},"x":287,"y":-81,"dx":0.8660129100151238,"dy":2.950461768994144}]